ORBCOMM FM06            
1 25118U 97084G   26170.37161350  .00000922  00000+0  28741-3 0  9994
2 25118  45.0147  42.1961 0000960 339.4902 189.9949 14.47567303494701
ORBCOMM FM04            
1 25159U 98007C   26170.69369703  .00000606  00000+0  25306-3 0  9995
2 25159 107.9626 174.5781 0041435 320.4599  39.3522 14.35745150476957
ORBCOMM FM19            
1 25415U 98046C   26170.59753160  .00000471  00000+0  19509-3 0  9994
2 25415  44.9928 232.1045 0004555 291.3057 220.8050 14.39498899457128
ORBCOMM FM20            
1 25416U 98046D   26169.88865265  .00000351  00000+0  16146-3 0  9996
2 25416  44.9933 243.4154 0002355 255.8652 104.1935 14.38068084457037
ORBCOMM FM27            
1 25481U 98053G   26170.13124017  .00000614  00000+0  24224-3 0  9997
2 25481  45.0043 326.1186 0001197 200.3982 159.6819 14.39143880450512
ORBCOMM FM32            
1 25982U 99065C   26170.02832377  .00000298  00000+0  14666-3 0  9997
2 25982  45.0135 164.5248 0004384  45.3038 314.8166 14.37131404387351
ORBCOMM FM109           
1 40086U 14040A   26170.01595539  .00000301  00000+0  99899-4 0  9991
2 40086  47.0031  82.8397 0001935 251.0787 108.9889 14.58846512634617
ORBCOMM FM110           
1 41182U 15081D   26170.84335051  .00000460  00000+0  13345-3 0  9994
2 41182  47.0032 348.8841 0002482  92.0645 268.0525 14.58883660558018
ORBCOMM FM118           
1 41183U 15081E   26169.91880297  .00001935  00000+0  44524-3 0  9999
2 41183  47.0047 353.5866 0002527  37.2659 322.8402 14.58881067557988
ORBCOMM FM112           
1 41184U 15081F   26170.53969383  .00000369  00000+0  11418-3 0  9990
2 41184  46.9988 259.1230 0003856 227.4401 132.6160 14.58907115559298
ORBCOMM FM113           
1 41185U 15081G   26170.51639508  .00000211  00000+0  80781-4 0  9998
2 41185  47.0005 259.6104 0002375 232.5233 127.5437 14.58860259559276
ORBCOMM FM108           
1 41187U 15081J   26169.04056137  .00000258  00000+0  90814-4 0  9996
2 41187  47.0030 178.1625 0002987 224.9174 135.1471 14.58870752560204
ORBCOMM FM117           
1 41188U 15081K   26170.44429502  .00000119  00000+0  61424-4 0  9994
2 41188  46.9990 170.1588 0003559 233.3238 126.7321 14.58865978560450
ORBCOMM FM116           
1 41189U 15081L   26170.56168682  .00000387  00000+0  11799-3 0  9993
2 41189  47.0017 259.3943 0000520  91.8831 268.2114 14.58886171559288
